GLOBALSTAR M024         
1 25883U 99043A   24330.42799917 -.00000013  00000+0  18498-2 0  9997
2 25883  51.9981 120.3709 0002625 113.0256 275.4507 11.10160224 92230
GLOBALSTAR M027         
1 25884U 99043B   24330.57143715 -.00000090  00000+0 -98444-3 0  9999
2 25884  52.0181 192.2640 0022019  24.9761 335.2093 11.04370787118747
GLOBALSTAR M054         
1 25885U 99043C   24330.49730972 -.00000056  00000+0  39229-3 0  9995
2 25885  52.0164 353.9106 0006200 188.6341 320.3848 11.39205976 95830
GLOBALSTAR M053         
1 25886U 99043D   24330.30681946 -.00000050  00000+0  55014-3 0  9996
2 25886  51.9991 290.1493 0003713  86.8984  62.6416 11.27660503 96449
GLOBALSTAR M058         
1 25907U 99049A   24330.32727026 -.00000058  00000+0  35868-3 0  9991
2 25907  51.9947 293.5312 0001337 249.3014 110.7678 11.93193213517200
GLOBALSTAR M050         
1 25908U 99049B   24330.34406323 -.00000166  00000+0 -87799-3 0  9999
2 25908  52.0001 316.3913 0009336 347.4099 159.5366 12.07444051123567
GLOBALSTAR M033         
1 25909U 99049C   24330.14950698 -.00000124  00000+0 -30813-3 0  9996
2 25909  51.9897 202.8522 0012064 199.5768 160.4617 12.20292258510830
GLOBALSTAR M055         
1 25910U 99049D   24330.67960224 -.00000059  00000+0  30288-3 0  9994
2 25910  52.0007 222.0139 0008087  68.8427 291.3288 12.29415360143475
